ORBCOMM FM06 [+]        
1 25118U 97084G   24029.77149532  .00002042  00000+0  65881-3 0  9998
2 25118  45.0136 262.5150 0001301 225.6333 245.1368 14.42072172368611
ORBCOMM FM07 [-]        
1 25119U 97084H   24029.73627649  .00001921  00000+0  62327-3 0  9992
2 25119  45.0130 263.1667 0002690 193.2786 166.7993 14.42002845368601
ORBCOMM FM03 [-]        
1 25158U 98007B   24029.38695580  .00001816  00000+0  71960-3 0  9997
2 25158 107.9746 180.7003 0045379  48.5492 311.9530 14.31767965351725
ORBCOMM FM04 [+]        
1 25159U 98007C   24029.39384845  .00001731  00000+0  68626-3 0  9999
2 25159 107.9733 183.5835 0040973  46.1009 314.3501 14.32023713351899
ORBCOMM FM17 [-]        
1 25413U 98046A   24029.35274398  .00001655  00000+0  65312-3 0  9996
2 25413  44.9947 115.6347 0003763 217.4641 142.5943 14.32754977330716
